{"fetched_at":"2026-03-30T06:02:59Z","count":15439,"tles":[{"name":"STARLINK-30068","line1":"1 56698U 23067L   26087.88031822  .00002717  00000+0  10817-3 0  9993","line2":"2 56698  43.0018 151.5029 0001578 271.9086  88.1585 15.27590254158503","category":"Starlink"}]}