{
  "norad_id": 56698,
  "name": "STARLINK-30068",
  "history": [
    {
      "epoch": "2026-03-28T21:07:39.494208",
      "apogee_km": 484.10108236741235,
      "perigee_km": 481.93570172568343,
      "latitude_deg": 40.855913239630226,
      "longitude_deg": -65.6894508798141,
      "semi_major_axis_km": 6861.155392046548,
      "eccentricity": 0.0001578,
      "inclination_deg": 43.0018,
      "raan_deg": 151.5029,
      "arg_perigee_deg": 271.9086,
      "mean_anomaly_deg": 88.1585,
      "mean_motion_rev_day": 15.27590254
    }
  ]
}